PERSEUS-M1              
1 40039U 14033AF  26164.82482235  .00001165  00000+0  11032-3 0  9992
2 40039  97.9644 108.9017 0010548 314.3223  45.7131 14.95622915650139
POLYITAN-1              
1 40042U 14033AJ  26164.59326023  .00018854  00000+0  59022-3 0  9996
2 40042  98.0941 190.5143 0008379 151.4693 208.7007 15.33140093653043
AEROCUBE 6B             
1 40046U 14033AN  26164.42275109  .00005856  00000+0  47409-3 0  9994
2 40046  97.7232 331.1933 0038635  22.2270 338.0617 14.99536094646193
AEROCUBE 5C             
1 40965U 15058B   26164.68405739  .00002410  00000+0  21937-3 0  9995
2 40965  64.7679 273.4878 0130606  64.6416 296.8154 14.91439290365132
AEROCUBE 7              
1 40966U 15058C   26164.62352787  .00003277  00000+0  26787-3 0  9994
2 40966  64.7630 255.9778 0120314  63.1063 298.2287 14.95704832365427
FOX-1A (AO-85)          
1 40967U 15058D   26164.73051364  .00002516  00000+0  23134-3 0  9992
2 40967  64.7761 289.7255 0130285  57.8943 303.4737 14.90954961113057
SINOD-D 1               
1 40968U 15058E   26164.66876260  .00003460  00000+0  28164-3 0  9992
2 40968  64.7761 269.9304 0118815  54.4829 306.7298 14.95885729116134
SNAP-3 ALICE            
1 40970U 15058G   26164.58306262  .00120940  00000+0  14774-2 0  9990
2 40970  64.7494 116.3819 0029039  14.8133 345.3856 15.59302899116326
LMRST-SAT               
1 40971U 15058H   26164.61784411  .00002363  00000+0  21956-3 0  9990
2 40971  64.7766 286.4068 0131881  60.0183 301.3942 14.90575803113024
PROPCUBE 3              
1 40973U 15058K   26164.66218728  .00002930  00000+0  24855-3 0  9991
2 40973  64.7689 263.5489 0123866  61.3006 300.0491 14.94240218114271
BISONSAT                
1 40974U 15058L   26164.33938476  .00010852  00000+0  52741-3 0  9992
2 40974  64.7583 186.0846 0078679  48.8392 311.9484 15.16110491115032
SNAP-3 JIMI             
1 40975U 15058M   26164.52787880  .00004581  00000+0  31893-3 0  9992
2 40975  64.7647 231.3502 0105965  56.8578 304.2652 15.02269914113671
SINOD-D 3               
1 40977U 15058P   26164.69330117  .00003383  00000+0  28966-3 0  9995
2 40977  64.7735 286.7288 0119084  59.5186 301.7623 14.93996432114232
HORYU-4                 
1 41340U 16012D   26164.24367274  .00411178  59322-4  11265-2 0  9990
2 41340  30.9840 107.9281 0004244 244.6601 115.3620 15.92808659570185
CELTEE 1                
1 41850U 16067C   26164.58561584  .00005691  00000+0  27051-3 0  9997
2 41850  98.0678  30.9074 0000728 119.4992 240.6314 15.19649941525330
OPTICUBE 04             
1 41851U 16067D   26164.56625164  .00001869  00000+0  12025-3 0  9999
2 41851  98.0701  16.6614 0016779 126.7802 233.4968 15.09645471524622
AEROCUBE 8D             
1 41852U 16067E   26164.61091215  .00007493  00000+0  30933-3 0  9997
2 41852  98.0691  34.5106 0004502 131.9611 228.2008 15.24352008525528
CORVUS BC2              
1 42846U 17042X   26164.40831955  .00003675  00000+0  25381-3 0  9994
2 42846  97.4051 325.9054 0014186 122.2810 237.9794 15.06270804486491
